start=new Date('2023-05-10T00:00:00.000Z').valueOf();
sats=[{"OBJECT_TYPE":"PAYLOAD","CLASSIFICATION_TYPE":"U","INCLINATION":"97.6554","ELEMENT_SET_NO":"999","PERIAPSIS":"562.184","TLE_LINE2":"2 53665  97.6554  11.1957 0001207 104.2809 255.8549 15.01256700 37938","EPHEMERIS_TYPE":"0","FILE":"3904553","ECCENTRICITY":"0.00012070","OBJECT_ID":"2022-105T","MEAN_ELEMENT_THEORY":"SGP4","BSTAR":"0.00004973100000","TIME_SYSTEM":"UTC","CENTER_NAME":"EARTH","RCS_SIZE":"LARGE","MEAN_ANOMALY":"255.8549","SEMIMAJOR_AXIS":"6941.157","MEAN_MOTION_DOT":"0.00000580","MEAN_MOTION":"15.01256700","REF_FRAME":"TEME","RA_OF_ASC_NODE":"11.1957","COUNTRY_CODE":"US","NORAD_CAT_ID":"53665","REV_AT_EPOCH":"3793","DECAY_DATE":null,"SITE":"AFWTR","ARG_OF_PERICENTER":"104.2809","MEAN_MOTION_DDOT":"0.0000000000000","APOAPSIS":"563.860","PERIOD":"95.920","EPOCH":"2023-05-09T13:44:26.157408","LAUNCH_DATE":"2022-08-31","OBJECT_NAME":"STARLINK-4334","GP_ID":"231507589","TLE_LINE1":"1 53665U 22105T   23129.57252497  .00000580  00000-0  49731-4 0  9994"},{"EPOCH":"2023-05-09T13:36:26.415360","PERIOD":"95.919","LAUNCH_DATE":"2022-08-31","OBJECT_NAME":"STARLINK-4449","TLE_LINE1":"1 53666U 22105U   23129.56697240  .00000649  00000-0  55103-4 0  9999","GP_ID":"231507341","REF_FRAME":"TEME","MEAN_MOTION":"15.01259657","COUNTRY_CODE":"US","RA_OF_ASC_NODE":"11.1874","NORAD_CAT_ID":"53666","SITE":"AFWTR","REV_AT_EPOCH":"3793","DECAY_DATE":null,"ARG_OF_PERICENTER":"98.4001","MEAN_MOTION_DDOT":"0.0000000000000","APOAPSIS":"564.019","BSTAR":"0.00005510300000","TIME_SYSTEM":"UTC","MEAN_ELEMENT_THEORY":"SGP4","CENTER_NAME":"EARTH","RCS_SIZE":"LARGE","MEAN_ANOMALY":"261.7387","SEMIMAJOR_AXIS":"6941.148","MEAN_MOTION_DOT":"0.00000649","OBJECT_TYPE":"PAYLOAD","ELEMENT_SET_NO":"999","INCLINATION":"97.6554","CLASSIFICATION_TYPE":"U","TLE_LINE2":"2 53666  97.6554  11.1874 0001449  98.4001 261.7387 15.01259657 37933","PERIAPSIS":"562.007","EPHEMERIS_TYPE":"0","FILE":"3904553","ECCENTRICITY":"0.00014490","OBJECT_ID":"2022-105U"},{"APOAPSIS":"563.308","MEAN_MOTION_DDOT":"0.0000000000000","SITE":"AFWTR","DECAY_DATE":null,"REV_AT_EPOCH":"3793","ARG_OF_PERICENTER":"135.2335","COUNTRY_CODE":"US","RA_OF_ASC_NODE":"11.1875","NORAD_CAT_ID":"53667","REF_FRAME":"TEME","MEAN_MOTION":"15.01256148","GP_ID":"231508592","TLE_LINE1":"1 53667U 22105V   23129.57623096  .00000919  00000-0  76134-4 0  9996","OBJECT_NAME":"STARLINK-4406","LAUNCH_DATE":"2022-08-31","EPOCH":"2023-05-09T13:49:46.354944","PERIOD":"95.920","FILE":"3904553","ECCENTRICITY":"0.00004090","OBJECT_ID":"2022-105V","EPHEMERIS_TYPE":"0","ELEMENT_SET_NO":"999","INCLINATION":"97.6560","CLASSIFICATION_TYPE":"U","TLE_LINE2":"2 53667  97.6560  11.1875 0000409 135.2335 224.8922 15.01256148 37934","PERIAPSIS":"562.740","OBJECT_TYPE":"PAYLOAD","SEMIMAJOR_AXIS":"6941.159","MEAN_MOTION_DOT":"0.00000919","MEAN_ANOMALY":"224.8922","RCS_SIZE":"LARGE","BSTAR":"0.00007613400000","TIME_SYSTEM":"UTC","MEAN_ELEMENT_THEORY":"SGP4","CENTER_NAME":"EARTH"},{"TLE_LINE1":"1 53668U 22105W   23129.56882152  .00000501  00000-0  43612-4 0  9998","GP_ID":"231508329","OBJECT_NAME":"STARLINK-4458","LAUNCH_DATE":"2022-08-31","PERIOD":"95.920","EPOCH":"2023-05-09T13:39:06.179328","APOAPSIS":"563.630","MEAN_MOTION_DDOT":"0.0000000000000","ARG_OF_PERICENTER":"182.4513","REV_AT_EPOCH":"3793","DECAY_DATE":null,"SITE":"AFWTR","NORAD_CAT_ID":"53668","COUNTRY_CODE":"US","RA_OF_ASC_NODE":"11.1785","MEAN_MOTION":"15.01258791","REF_FRAME":"TEME","MEAN_MOTION_DOT":"0.00000501","SEMIMAJOR_AXIS":"6941.151","MEAN_ANOMALY":"177.6707","RCS_SIZE":"LARGE","CENTER_NAME":"EARTH","MEAN_ELEMENT_THEORY":"SGP4","BSTAR":"0.00004361200000","TIME_SYSTEM":"UTC","OBJECT_ID":"2022-105W","FILE":"3904553","ECCENTRICITY":"0.00008850","EPHEMERIS_TYPE":"0","PERIAPSIS":"562.401","TLE_LINE2":"2 53668  97.6568  11.1785 0000885 182.4513 177.6707 15.01258791 37935","INCLINATION":"97.6568","CLASSIFICATION_TYPE":"U","ELEMENT_SET_NO":"999","OBJECT_TYPE":"PAYLOAD"},{"TLE_LINE1":"1 53669U 22105X   23129.57067542  .00001061  00000-0  87200-4 0  9991","GP_ID":"231507090","OBJECT_NAME":"STARLINK-4464","LAUNCH_DATE":"2022-08-31","PERIOD":"95.920","EPOCH":"2023-05-09T13:41:46.356288","MEAN_MOTION_DDOT":"0.0000000000000","APOAPSIS":"563.511","REV_AT_EPOCH":"3793","DECAY_DATE":null,"SITE":"AFWTR","ARG_OF_PERICENTER":"147.6804","RA_OF_ASC_NODE":"11.1805","COUNTRY_CODE":"US","NORAD_CAT_ID":"53669","MEAN_MOTION":"15.01258021","REF_FRAME":"TEME","SEMIMAJOR_AXIS":"6941.153","MEAN_MOTION_DOT":"0.00001061","MEAN_ANOMALY":"212.4464","RCS_SIZE":"LARGE","MEAN_ELEMENT_THEORY":"SGP4","BSTAR":"0.00008720000000","TIME_SYSTEM":"UTC","CENTER_NAME":"EARTH","OBJECT_ID":"2022-105X","FILE":"3904553","ECCENTRICITY":"0.00007100","EPHEMERIS_TYPE":"0","INCLINATION":"97.6565","CLASSIFICATION_TYPE":"U","ELEMENT_SET_NO":"999","PERIAPSIS":"562.525","TLE_LINE2":"2 53669  97.6565  11.1805 0000710 147.6804 212.4464 15.01258021 37933","OBJECT_TYPE":"PAYLOAD"},{"EPOCH":"2023-05-09T13:33:46.404288","PERIOD":"95.919","LAUNCH_DATE":"2022-08-31","OBJECT_NAME":"STARLINK-4459","TLE_LINE1":"1 53670U 22105Y   23129.56512042  .00000062  00000-0  93984-5 0  9999","GP_ID":"231507841","REF_FRAME":"TEME","MEAN_MOTION":"15.01260285","NORAD_CAT_ID":"53670","COUNTRY_CODE":"US","RA_OF_ASC_NODE":"11.1765","ARG_OF_PERICENTER":"99.3664","SITE":"AFWTR","REV_AT_EPOCH":"3793","DECAY_DATE":null,"APOAPSIS":"563.872","MEAN_MOTION_DDOT":"0.0000000000000","CENTER_NAME":"EARTH","TIME_SYSTEM":"UTC","BSTAR":"0.00000939840000","MEAN_ELEMENT_THEORY":"SGP4","RCS_SIZE":"LARGE","MEAN_ANOMALY":"260.7700","MEAN_MOTION_DOT":"0.00000062","SEMIMAJOR_AXIS":"6941.146","OBJECT_TYPE":"PAYLOAD","TLE_LINE2":"2 53670  97.6567  11.1765 0001241  99.3664 260.7700 15.01260285 37933","PERIAPSIS":"562.150","ELEMENT_SET_NO":"999","CLASSIFICATION_TYPE":"U","INCLINATION":"97.6567","EPHEMERIS_TYPE":"0","FILE":"3904553","ECCENTRICITY":"0.00012410","OBJECT_ID":"2022-105Y"},{"APOAPSIS":"564.210","MEAN_MOTION_DDOT":"0.0000000000000","REV_AT_EPOCH":"3793","DECAY_DATE":null,"SITE":"AFWTR","ARG_OF_PERICENTER":"105.1005","COUNTRY_CODE":"US","RA_OF_ASC_NODE":"11.1850","NORAD_CAT_ID":"53671","MEAN_MOTION":"15.01260048","REF_FRAME":"TEME","TLE_LINE1":"1 53671U 22105Z   23129.56536512  .00000854  00000-0  71061-4 0  9998","GP_ID":"231508092","OBJECT_NAME":"STARLINK-4440","LAUNCH_DATE":"2022-08-31","PERIOD":"95.919","EPOCH":"2023-05-09T13:34:07.546368","OBJECT_ID":"2022-105Z","FILE":"3904553","ECCENTRICITY":"0.00017260","EPHEMERIS_TYPE":"0","CLASSIFICATION_TYPE":"U","INCLINATION":"97.6557","ELEMENT_SET_NO":"999","PERIAPSIS":"561.814","TLE_LINE2":"2 53671  97.6557  11.1850 0001726 105.1005 255.0411 15.01260048 37934","OBJECT_TYPE":"PAYLOAD","SEMIMAJOR_AXIS":"6941.147","MEAN_MOTION_DOT":"0.00000854","MEAN_ANOMALY":"255.0411","RCS_SIZE":"LARGE","MEAN_ELEMENT_THEORY":"SGP4","BSTAR":"0.00007106100000","TIME_SYSTEM":"UTC","CENTER_NAME":"EARTH"},{"ECCENTRICITY":"0.00015690","FILE":"3904553","OBJECT_ID":"2022-105AA","EPHEMERIS_TYPE":"0","TLE_LINE2":"2 53672  97.6582  11.1757 0001569  88.5887 271.5517 15.01278279 37931","PERIAPSIS":"561.866","ELEMENT_SET_NO":"999","INCLINATION":"97.6582","CLASSIFICATION_TYPE":"U","OBJECT_TYPE":"PAYLOAD","MEAN_MOTION_DOT":"-0.00003438","SEMIMAJOR_AXIS":"6941.091","MEAN_ANOMALY":"271.5517","RCS_SIZE":"LARGE","CENTER_NAME":"EARTH","TIME_SYSTEM":"UTC","BSTAR":"-0.00026306000000","MEAN_ELEMENT_THEORY":"SGP4","MEAN_MOTION_DDOT":"0.0000000000000","APOAPSIS":"564.045","ARG_OF_PERICENTER":"88.5887","SITE":"AFWTR","REV_AT_EPOCH":"3793","DECAY_DATE":null,"NORAD_CAT_ID":"53672","RA_OF_ASC_NODE":"11.1757","COUNTRY_CODE":"US","REF_FRAME":"TEME","MEAN_MOTION":"15.01278279","GP_ID":"231508830","TLE_LINE1":"1 53672U 22105AA  23129.56165783 -.00003438  00000-0 -26306-3 0  9991","OBJECT_NAME":"STARLINK-4428","LAUNCH_DATE":"2022-08-31","EPOCH":"2023-05-09T13:28:47.236512","PERIOD":"95.918"},{"TLE_LINE1":"1 53673U 22105AB  23129.59893958  .00000002  00000-0  47940-5 0  9998","GP_ID":"231507590","OBJECT_NAME":"STARLINK-4456","LAUNCH_DATE":"2022-08-31","PERIOD":"95.971","EPOCH":"2023-05-09T14:22:28.379712","APOAPSIS":"567.308","MEAN_MOTION_DDOT":"0.0000000000000","DECAY_DATE":null,"REV_AT_EPOCH":"3796","SITE":"AFWTR","ARG_OF_PERICENTER":"96.7025","RA_OF_ASC_NODE":"11.6483","COUNTRY_CODE":"US","NORAD_CAT_ID":"53673","MEAN_MOTION":"15.00446282","REF_FRAME":"TEME","SEMIMAJOR_AXIS":"6943.656","MEAN_MOTION_DOT":"0.00000002","MEAN_ANOMALY":"263.4491","RCS_SIZE":"LARGE","MEAN_ELEMENT_THEORY":"SGP4","TIME_SYSTEM":"UTC","BSTAR":"0.00000479400000","CENTER_NAME":"EARTH","FILE":"3904553","OBJECT_ID":"2022-105AB","ECCENTRICITY":"0.00025740","EPHEMERIS_TYPE":"0","CLASSIFICATION_TYPE":"U","INCLINATION":"97.6566","ELEMENT_SET_NO":"999","PERIAPSIS":"563.734","TLE_LINE2":"2 53673  97.6566  11.6483 0002574  96.7025 263.4491 15.00446282 37961","OBJECT_TYPE":"PAYLOAD"},{"RCS_SIZE":"LARGE","CENTER_NAME":"EARTH","TIME_SYSTEM":"UTC","BSTAR":"0.00057748000000","MEAN_ELEMENT_THEORY":"SGP4","MEAN_MOTION_DOT":"0.00007361","SEMIMAJOR_AXIS":"6941.233","MEAN_ANOMALY":"257.8829","TLE_LINE2":"2 53674  97.6593  11.1756 0002053 102.2625 257.8829 15.01232190 37932","PERIAPSIS":"561.673","ELEMENT_SET_NO":"999","INCLINATION":"97.6593","CLASSIFICATION_TYPE":"U","OBJECT_TYPE":"PAYLOAD","FILE":"3904553","OBJECT_ID":"2022-105AC","ECCENTRICITY":"0.00020530","EPHEMERIS_TYPE":"0","LAUNCH_DATE":"2022-08-31","EPOCH":"2023-05-09T13:25:47.461440","PERIOD":"95.921","GP_ID":"231507342","TLE_LINE1":"1 53674U 22105AC  23129.55957710  .00007361  00000-0  57748-3 0  9992","OBJECT_NAME":"STARLINK-4620","NORAD_CAT_ID":"53674","RA_OF_ASC_NODE":"11.1756","COUNTRY_CODE":"US","REF_FRAME":"TEME","MEAN_MOTION":"15.01232190","APOAPSIS":"564.523","MEAN_MOTION_DDOT":"0.0000000000000","ARG_OF_PERICENTER":"102.2625","SITE":"AFWTR","REV_AT_EPOCH":"3793","DECAY_DATE":null}];
